[{"OBJECT_NAME":"STARLINK-4538","OBJECT_ID":"2022-097AU","EPOCH":"2026-03-09T21:22:51.438432","MEAN_MOTION":15.08837222,"ECCENTRICITY":0.00011952,"INCLINATION":53.2163,"RA_OF_ASC_NODE":103.2564,"ARG_OF_PERICENTER":78.151,"MEAN_ANOMALY":281.9616,"EPHEMERIS_TYPE":0,"CLASSIFICATION_TYPE":"U","NORAD_CAT_ID":53430,"ELEMENT_SET_NO":999,"REV_AT_EPOCH":19879,"BSTAR":1.098682e-6,"MEAN_MOTION_DOT":-2.7e-6,"MEAN_MOTION_DDOT":0},{"OBJECT_NAME":"CZ-2D DEB","OBJECT_ID":"2017-060C","EPOCH":"2026-03-09T12:36:22.356864","MEAN_MOTION":15.07716497,"ECCENTRICITY":0.0018685,"INCLINATION":98.2453,"RA_OF_ASC_NODE":267.9231,"ARG_OF_PERICENTER":71.2095,"MEAN_ANOMALY":289.1156,"EPHEMERIS_TYPE":0,"CLASSIFICATION_TYPE":"U","NORAD_CAT_ID":44610,"ELEMENT_SET_NO":999,"REV_AT_EPOCH":45422,"BSTAR":0.00057216024,"MEAN_MOTION_DOT":8.702e-5,"MEAN_MOTION_DDOT":0}]
